GLOBALSTAR M084         
1 38040U 11080A   25104.74341652 -.00000090  00000+0  77191-4 0  9997
2 38040  52.0002 241.6194 0000478 136.4641  12.2534 12.62264873614657
GLOBALSTAR M080         
1 38041U 11080B   25104.88079669 -.00000094  00000+0  53606-4 0  9998
2 38041  52.0053 242.7850 0000727 152.5811  21.2384 12.62291806614794
GLOBALSTAR M082         
1 38042U 11080C   25104.97362010 -.00000059  00000+0  24943-3 0  9996
2 38042  52.0066 197.9423 0000745  89.5919  86.0440 12.62265210615517
GLOBALSTAR M092         
1 38043U 11080D   25104.94194582 -.00000061  00000+0  24018-3 0  9997
2 38043  52.0082 288.4122 0000730  97.6792  54.4007 12.62262985613962
GLOBALSTAR M090         
1 38044U 11080E   25104.67827311 -.00000060  00000+0  24341-3 0  9999
2 38044  51.9877 192.7316 0000622 110.5922  42.0256 12.62269126615599
GLOBALSTAR M093         
1 39073U 13005B   25104.67091621 -.00000102  00000+0  91430-5 0  9990
2 39073  51.9792 101.1827 0000432  98.0725 262.0191 12.62263763562740
